SKYSAT-C4               
1 41771U 16058B   26165.81199123  .00015527  00000+0  29321-3 0  9993
2 41771  96.9169 187.6837 0001225 128.6812 231.4550 15.48520917545107
SKYSAT-C5               
1 41772U 16058C   26165.69107386  .00006951  00000+0  21063-3 0  9996
2 41772  97.0470 206.4426 0001320 334.5202  25.5976 15.34439069543368
SKYSAT-C2               
1 41773U 16058D   26165.79349519  .00011495  00000+0  27118-3 0  9990
2 41773  97.0164 187.9784 0004843  75.8598 284.3188 15.42023079544680
SKYSAT-C3               
1 41774U 16058E   26165.82297626  .00021420  00000+0  35142-3 0  9991
2 41774  96.9000 196.7608 0001599  91.3861 268.7576 15.52449633545746
ALSAT-1B                
1 41785U 16059C   26166.06535176  .00000586  00000+0  10026-3 0  9990
2 41785  97.7745 174.9204 0007952 228.3609 131.6919 14.72274395520265
PATHFINDER 1            
1 41787U 16059E   26166.22757642  .00000471  00000+0  90627-4 0  9993
2 41787  97.8167 165.5923 0027644 209.9754 149.9870 14.67661044519425
SCATSAT 1               
1 41790U 16059H   26166.18435385  .00000941  00000+0  13048-3 0  9992
2 41790  98.1191 229.9297 0053320 254.1187 105.4143 14.79521638101290
GOKTURK 1A              
1 41875U 16073A   26166.12521317  .00000492  00000+0  10562-3 0  9996
2 41875  98.1262  60.8327 0001450  76.4121 283.7242 14.62773895508522
RESOURCESAT-2A          
1 41877U 16074A   26166.17047973  .00000191  00000+0  10722-3 0  9999
2 41877  98.7533 239.6909 0003334  88.0101 272.1458 14.21616346494014
CARTOSAT-2D             
1 41948U 17008A   26166.18254427  .00004722  00000+0  22676-3 0  9996
2 41948  97.4112 225.5257 0003792 238.3709 121.7156 15.19321882517278
SENTINEL-2B             
1 42063U 17013A   26166.17951848  .00000166  00000+0  80019-4 0  9995
2 42063  98.5698 240.9819 0001179  87.8307 272.3011 14.30816681484354
CARTOSAT-2E             
1 42767U 17036C   26166.20035751  .00004251  00000+0  20495-3 0  9991
2 42767  97.4283 226.0353 0002581 331.3180  28.7912 15.19242643497845
FORMOSAT-5              
1 42920U 17049A   26166.19089263  .00000135  00000+0  45341-4 0  9996
2 42920  98.2254 241.5449 0012698  89.8753 270.3897 14.50898193466385
SENTINEL-5P             
1 42969U 17064A   26166.08730063  .00000041  00000+0  40612-4 0  9997
2 42969  98.7925 108.2334 0000964  83.8184 276.3102 14.19518683449266
SKYSAT-C11              
1 42987U 17068A   26165.93757455  .00025581  00000+0  34505-3 0  9997
2 42987  97.4346 314.6701 0000706  87.0693 273.0643 15.57792393482890
SKYSAT-C10              
1 42988U 17068B   26165.94498286  .00008332  00000+0  25088-3 0  9994
2 42988  97.4504 302.7699 0001149  93.8449 266.2926 15.34605921482014
SKYSAT-C9               
1 42989U 17068C   26166.09684810  .00011999  00000+0  28763-3 0  9998
2 42989  97.4424 303.8379 0009322 139.6285 220.5655 15.41517522482436
SKYSAT-C8               
1 42990U 17068D   26166.18016692  .00008769  00000+0  24502-3 0  9995
2 42990  97.4521 302.7996 0001475  97.3345 262.8067 15.36941663482007
SKYSAT-C7               
1 42991U 17068E   26166.17371993  .00008584  00000+0  24012-3 0  9994
2 42991  97.4532 303.7822 0007201 112.3956 247.8051 15.36891332482067
SKYSAT-C6               
1 42992U 17068F   26166.12485400  .00008840  00000+0  26956-3 0  9993
2 42992  97.4565 303.7101 0004342 142.8744 217.2800 15.34180397482007
CARTOSAT-2F             
1 43111U 18004A   26166.16661931  .00005063  00000+0  24379-3 0  9998
2 43111  97.4797 225.8205 0000594 226.6835 133.4350 15.19204175467022
GAOFEN-1 02             
1 43259U 18031A   26166.19760260  .00000759  00000+0  11657-3 0  9991
2 43259  98.0533 228.7301 0003922  39.0518 321.0974 14.76454303442405
GAOFEN-1 03             
1 43260U 18031B   26166.17576755  .00000628  00000+0  97676-4 0  9996
2 43260  98.0523 228.5671 0003782  83.1384 277.0255 14.76466518442390
GAOFEN-1 04             
1 43262U 18031D   26166.21921381  .00001063  00000+0  16007-3 0  9994
2 43262  98.0535 228.8007 0002256  84.4713 275.6753 14.76478590442396
SENTINEL-3B             
1 43437U 18039A   26166.15593833  .00000073  00000+0  48395-4 0  9992
2 43437  98.6250 233.7173 0000733  85.7408 274.3856 14.26734175423839
GAOFEN-5 01             
1 43461U 18043A   26165.93806828  .00000277  00000+0  67153-4 0  9999
2 43461  98.4568 137.4771 0003028  87.2724 272.8822 14.60604013431366
GAOFEN-6                
1 43484U 18048A   26166.17374622  .00000378  00000+0  61249-4 0  9990
2 43484  97.8551 228.9707 0011664 173.9212 186.2142 14.76595880433094
GAOFEN-11 01            
1 43585U 18063A   26166.17879554  .00013865  00000+0  20637-3 0  9993
2 43585  97.1299 233.0635 0003254   7.0980 353.0320 15.55237763440035
ICESAT-2                
1 43613U 18070A   26166.12519720  .00007795  00000+0  28315-3 0  9990
2 43613  92.0080 290.4216 0005936 111.0387 249.1498 15.28250760432143
HYSIS                   
1 43719U 18096A   26166.18135079  .00000677  00000+0  99348-4 0  9999
2 43719  97.9847 232.9451 0001888 107.8095 252.3322 14.78692009407120
KAZSTSAT                
1 43783U 18099AB  26166.02934914  .00001371  00000+0  11510-3 0  9997
2 43783  97.4266 198.0558 0008392  75.4729 284.7425 14.99860137410985
