OBJECT_NAME,OBJECT_ID,EPOCH,MEAN_MOTION,ECCENTRICITY,INCLINATION,RA_OF_ASC_NODE,ARG_OF_PERICENTER,MEAN_ANOMALY,EPHEMERIS_TYPE,CLASSIFICATION_TYPE,NORAD_CAT_ID,ELEMENT_SET_NO,REV_AT_EPOCH,BSTAR,MEAN_MOTION_DOT,MEAN_MOTION_DDOT
SKYSAT-C4,2016-058B,2026-06-14T19:29:16.042272,15.48520917,.00012257,96.9169,187.6837,128.6812,231.4550,0,U,41771,999,54510,.29321069E-3,.15527E-3,0
SKYSAT-C5,2016-058C,2026-06-14T16:35:08.781504,15.34439069,.00013206,97.0470,206.4426,334.5202,25.5976,0,U,41772,999,54336,.21062537E-3,.6951E-4,0
SKYSAT-C2,2016-058D,2026-06-14T19:02:37.984416,15.42023079,.00048434,97.0164,187.9784,75.8598,284.3188,0,U,41773,999,54468,.27118453E-3,.11495E-3,0
SKYSAT-C3,2016-058E,2026-06-14T19:45:05.148864,15.52449633,.00015999,96.9000,196.7608,91.3861,268.7576,0,U,41774,999,54574,.35142239E-3,.2142E-3,0
ALSAT-1B,2016-059C,2026-06-15T01:34:06.392064,14.72274395,.0007952,97.7745,174.9204,228.3609,131.6919,0,U,41785,999,52026,.10026E-3,.586E-5,0
PATHFINDER 1,2016-059E,2026-06-15T05:27:42.602688,14.67661044,.0027644,97.8167,165.5923,209.9754,149.9870,0,U,41787,999,51942,.90627E-4,.471E-5,0
SCATSAT 1,2016-059H,2026-06-15T04:25:28.172640,14.79521638,.005332,98.1191,229.9297,254.1187,105.4143,0,U,41790,999,10129,.13048E-3,.941E-5,0
GOKTURK 1A,2016-073A,2026-06-15T03:00:18.417888,14.62773895,.000145,98.1262,60.8327,76.4121,283.7242,0,U,41875,999,50852,.10562E-3,.492E-5,0
RESOURCESAT-2A,2016-074A,2026-06-15T04:05:29.448672,14.21616346,.0003334,98.7533,239.6909,88.0101,272.1458,0,U,41877,999,49401,.10722E-3,.191E-5,0
CARTOSAT-2D,2017-008A,2026-06-15T04:22:51.824928,15.19321882,.0003792,97.4112,225.5257,238.3709,121.7156,0,U,41948,999,51727,.22676E-3,.4722E-4,0
SENTINEL-2B,2017-013A,2026-06-15T04:18:30.396672,14.30816681,.0001179,98.5698,240.9819,87.8307,272.3011,0,U,42063,999,48435,.80019E-4,.166E-5,0
CARTOSAT-2E,2017-036C,2026-06-15T04:48:30.888864,15.19242643,.0002581,97.4283,226.0353,331.3180,28.7912,0,U,42767,999,49784,.20495E-3,.4251E-4,0
FORMOSAT-5,2017-049A,2026-06-15T04:34:53.123232,14.50898193,.0012698,98.2254,241.5449,89.8753,270.3897,0,U,42920,999,46638,.45341E-4,.135E-5,0
SENTINEL-5P,2017-064A,2026-06-15T02:05:42.774432,14.19518683,.0000964,98.7925,108.2334,83.8184,276.3102,0,U,42969,999,44926,.40612E-4,.41E-6,0
SKYSAT-C11,2017-068A,2026-06-14T22:30:06.441120,15.57792393,.0000706,97.4346,314.6701,87.0693,273.0643,0,U,42987,999,48289,.34505E-3,.25581E-3,0
SKYSAT-C10,2017-068B,2026-06-14T22:40:46.519104,15.34605921,.0001149,97.4504,302.7699,93.8449,266.2926,0,U,42988,999,48201,.25088E-3,.8332E-4,0
SKYSAT-C9,2017-068C,2026-06-15T02:19:27.675840,15.41517522,.0009322,97.4424,303.8379,139.6285,220.5655,0,U,42989,999,48243,.28763E-3,.11999E-3,0
SKYSAT-C8,2017-068D,2026-06-15T04:19:26.421888,15.36941663,.0001475,97.4521,302.7996,97.3345,262.8067,0,U,42990,999,48200,.24502E-3,.8769E-4,0
SKYSAT-C7,2017-068E,2026-06-15T04:10:09.401952,15.36891332,.0007201,97.4532,303.7822,112.3956,247.8051,0,U,42991,999,48206,.24012E-3,.8584E-4,0
SKYSAT-C6,2017-068F,2026-06-15T02:59:47.385600,15.34180397,.0004342,97.4565,303.7101,142.8744,217.2800,0,U,42992,999,48200,.26956E-3,.884E-4,0
CARTOSAT-2F,2018-004A,2026-06-15T03:59:55.908384,15.19204175,.0000594,97.4797,225.8205,226.6835,133.4350,0,U,43111,999,46702,.24379E-3,.5063E-4,0
GAOFEN-1 02,2018-031A,2026-06-15T04:44:32.864640,14.76454303,.0003922,98.0533,228.7301,39.0518,321.0974,0,U,43259,999,44240,.11657E-3,.759E-5,0
GAOFEN-1 03,2018-031B,2026-06-15T04:13:06.316320,14.76466518,.0003782,98.0523,228.5671,83.1384,277.0255,0,U,43260,999,44239,.97676E-4,.628E-5,0
GAOFEN-1 04,2018-031D,2026-06-15T05:15:40.073184,14.76478590,.0002256,98.0535,228.8007,84.4713,275.6753,0,U,43262,999,44239,.16007E-3,.1063E-4,0
SENTINEL-3B,2018-039A,2026-06-15T03:44:33.071712,14.26734175,.0000733,98.6250,233.7173,85.7408,274.3856,0,U,43437,999,42383,.48395E-4,.73E-6,0
GAOFEN-5 01,2018-043A,2026-06-14T22:30:49.099392,14.60604013,.0003028,98.4568,137.4771,87.2724,272.8822,0,U,43461,999,43136,.67153E-4,.277E-5,0
GAOFEN-6,2018-048A,2026-06-15T04:10:11.673408,14.76595880,.0011664,97.8551,228.9707,173.9212,186.2142,0,U,43484,999,43309,.61249E-4,.378E-5,0
GAOFEN-11 01,2018-063A,2026-06-15T04:17:27.934656,15.55237763,.0003254,97.1299,233.0635,7.0980,353.0320,0,U,43585,999,44003,.20637E-3,.13865E-3,0
ICESAT-2,2018-070A,2026-06-15T03:00:17.038080,15.28250760,.0005936,92.0080,290.4216,111.0387,249.1498,0,U,43613,999,43214,.28315E-3,.7795E-4,0
HYSIS,2018-096A,2026-06-15T04:21:08.708256,14.78692009,.0001888,97.9847,232.9451,107.8095,252.3322,0,U,43719,999,40712,.99348E-4,.677E-5,0
KAZSTSAT,2018-099AB,2026-06-15T00:42:15.765696,14.99860137,.0008392,97.4266,198.0558,75.4729,284.7425,0,U,43783,999,41098,.1151E-3,.1371E-4,0
